NORAD_CAT_ID,OBJECT_NAME,OBJECT_TYPE,EPOCH,MEAN_MOTION,ECCENTRICITY,INCLINATION,RA_OF_ASC_NODE,ARG_OF_PERICENTER,MEAN_ANOMALY,BSTAR,MEAN_MOTION_DOT,MEAN_MOTION_DDOT,TLE_LINE0,TLE_LINE1,TLE_LINE2,SEMIMAJOR_AXIS,PERIOD,APOGEE,PERIGEE,DECAYED
53146.0,STARLINK-4099,PAYLOAD,2023-09-04 14:54:45,15.08829563,0.0001289,53.2177,330.9997,95.1495,264.9645,-8.3561e-05,-1.617e-05,0.0,0 STARLINK-4099,1 53146U 22083Q   23247.62136222 -.00001617  00000-0 -83561-4 0  9990,2 53146  53.2177 330.9997 0001289  95.1495 264.9645 15.08829563 63405,6917.912,95.438,540.669,538.886,0.0
53146.0,STARLINK-4099,PAYLOAD,2023-09-05 22:42:27,15.08829383,0.0001564,53.2177,325.0524,130.2304,229.8825,0.00032292,4.854e-05,0.0,0 STARLINK-4099,1 53146U 22083Q   23248.94615503  .00004854  00000-0  32292-3 0  9998,2 53146  53.2177 325.0524 0001564 130.2304 229.8825 15.08829383 63604,6917.913,95.438,540.86,538.696,0.0
53146.0,STARLINK-4099,PAYLOAD,2023-09-07 08:05:34,15.088387,0.0001319,53.218,318.8081,91.4148,268.6996,-1.7468e-05,-5.66e-06,0.0,0 STARLINK-4099,1 53146U 22083Q   23250.33720196 -.00000566  00000-0 -17468-4 0  9996,2 53146  53.2180 318.8081 0001319  91.4148 268.6996 15.08838700 63814,6917.884,95.438,540.662,538.837,0.0
53146.0,STARLINK-4099,PAYLOAD,2023-09-07 09:40:57,15.08838702,0.0001343,53.2181,318.5111,89.3863,270.7283,-2.0664e-05,-6.17e-06,0.0,0 STARLINK-4099,1 53146U 22083Q   23250.40344181 -.00000617  00000-0 -20664-4 0  9999,2 53146  53.2181 318.5111 0001343  89.3863 270.7283 15.08838702 63199,6917.884,95.438,540.678,538.82,0.0
53146.0,STARLINK-4099,PAYLOAD,2023-09-07 14:27:06,15.08840403,0.000136,53.2177,317.6176,97.7953,262.3193,4.4795e-06,-2.17e-06,0.0,0 STARLINK-4099,1 53146U 22083Q   23250.60215932 -.00000217  00000-0  44795-5 0  9999,2 53146  53.2177 317.6176 0001360  97.7953 262.3193 15.08840403 63229,6917.879,95.438,540.685,538.803,0.0
53146.0,STARLINK-4099,PAYLOAD,2023-09-08 09:31:44,15.08841329,0.0001527,53.2178,314.048,104.5737,255.5424,1.2077e-05,-9.6e-07,0.0,0 STARLINK-4099,1 53146U 22083Q   23251.39703833 -.00000096  00000-0  12077-4 0  9990,2 53146  53.2178 314.0480 0001527 104.5737 255.5424 15.08841329 63972,6917.876,95.437,540.798,538.685,0.0
53146.0,STARLINK-4099,PAYLOAD,2023-09-08 15:53:16,15.08839917,0.0001462,53.2174,312.8582,101.779,258.3366,0.00011018,1.466e-05,0.0,0 STARLINK-4099,1 53146U 22083Q   23251.66199494  .00001466  00000-0  11018-3 0  9996,2 53146  53.2174 312.8582 0001462 101.7790 258.3366 15.08839917 63384,6917.881,95.438,540.757,538.734,0.0
53146.0,STARLINK-4099,PAYLOAD,2023-09-09 10:57:54,15.08839898,0.0001354,53.2171,309.2922,83.3613,276.7533,0.00010454,1.376e-05,0.0,0 STARLINK-4099,1 53146U 22083Q   23252.45687778  .00001376  00000-0  10454-3 0  9994,2 53146  53.2171 309.2922 0001354  83.3613 276.7533 15.08839898 64130,6917.881,95.438,540.682,538.809,0.0
53146.0,STARLINK-4099,PAYLOAD,2023-09-09 20:30:13,15.08832059,0.0001952,53.2181,307.5049,86.5274,273.5942,2.827e-05,1.62e-06,0.0,0 STARLINK-4099,1 53146U 22083Q   23252.85432681  .00000162  00000-0  28270-4 0  9997,2 53146  53.2181 307.5049 0001952  86.5274 273.5942 15.08832059 64191,6917.905,95.438,541.12,538.419,0.0
53146.0,STARLINK-4099,PAYLOAD,2023-09-10 10:48:41,15.08843392,0.0001432,53.2176,304.8304,91.6681,268.4476,4.9363e-05,4.98e-06,0.0,0 STARLINK-4099,1 53146U 22083Q   23253.45047849  .00000498  00000-0  49363-4 0  9990,2 53146  53.2176 304.8304 0001432  91.6681 268.4476 15.08843392 64288,6917.87,95.437,540.726,538.744,0.0
53146.0,STARLINK-4099,PAYLOAD,2023-09-11 10:39:29,15.08838913,0.0001334,53.2168,300.3709,81.9645,278.1499,-1.171e-05,-4.74e-06,0.0,0 STARLINK-4099,1 53146U 22083Q   23254.44408580 -.00000474  00000-0 -11710-4 0  9994,2 53146  53.2168 300.3709 0001334  81.9645 278.1499 15.08838913 64435,6917.884,95.438,540.672,538.826,0.0
53146.0,STARLINK-4099,PAYLOAD,2023-09-11 13:50:15,15.08841333,0.0001369,53.217,299.7761,82.2599,277.8549,-4.2622e-06,-3.56e-06,0.0,0 STARLINK-4099,1 53146U 22083Q   23254.57656431 -.00000356  00000-0 -42622-5 0  9994,2 53146  53.2170 299.7761 0001369  82.2599 277.8549 15.08841333 63821,6917.876,95.437,540.688,538.794,0.0
53146.0,STARLINK-4099,PAYLOAD,2023-09-12 10:30:15,15.0884927,0.0001371,53.2167,295.9106,84.2452,275.8697,0.00012242,1.661e-05,0.0,0 STARLINK-4099,1 53146U 22083Q   23255.43767717  .00001661  00000-0  12242-3 0  9991,2 53146  53.2167 295.9106 0001371  84.2452 275.8697 15.08849270 64585,6917.852,95.437,540.665,538.769,0.0
53146.0,STARLINK-4099,PAYLOAD,2023-09-13 08:45:39,15.08848606,0.0001401,53.2164,291.747,84.4495,275.6657,0.00018018,2.581e-05,0.0,0 STARLINK-4099,1 53146U 22083Q   23256.36503650  .00002581  00000-0  18018-3 0  9997,2 53146  53.2164 291.7470 0001401  84.4495 275.6657 15.08848606 64725,6917.854,95.437,540.688,538.75,0.0
53146.0,STARLINK-4099,PAYLOAD,2023-09-13 11:56:25,15.08848481,0.0001488,53.2157,291.1528,79.7314,280.3846,0.00020698,3.008e-05,0.0,0 STARLINK-4099,1 53146U 22083Q   23256.49751824  .00003008  00000-0  20698-3 0  9991,2 53146  53.2157 291.1528 0001488  79.7314 280.3846 15.08848481 64114,6917.854,95.437,540.749,538.69,0.0
53146.0,STARLINK-4099,PAYLOAD,2023-09-14 02:14:54,15.08837344,0.000146,53.2154,288.4765,78.2974,281.8182,-1.1943e-05,-4.78e-06,0.0,0 STARLINK-4099,1 53146U 22083Q   23257.09368342 -.00000478  00000-0 -11943-4 0  9991,2 53146  53.2154 288.4765 0001460  78.2974 281.8182 15.08837344 64833,6917.889,95.438,540.764,538.743,0.0
53146.0,STARLINK-4099,PAYLOAD,2023-09-14 11:47:13,15.08840713,0.0001437,53.2168,286.6914,80.8947,279.2207,-1.3329e-05,-5e-06,0.0,0 STARLINK-4099,1 53146U 22083Q   23257.49112479 -.00000500  00000-0 -13329-4 0  9999,2 53146  53.2168 286.6914 0001437  80.8947 279.2207 15.08840713 64267,6917.878,95.438,540.737,538.749,0.0
53146.0,STARLINK-4099,PAYLOAD,2023-09-14 19:44:08,15.08837227,0.0001381,53.2173,285.204,90.8944,269.2207,-3.262e-06,-3.4e-06,0.0,0 STARLINK-4099,1 53146U 22083Q   23257.82232598 -.00000340  00000-0 -32620-5 0  9999,2 53146  53.2173 285.2040 0001381  90.8944 269.2207 15.08837227 64315,6917.889,95.438,540.709,538.799,0.0
53146.0,STARLINK-4099,PAYLOAD,2023-09-15 06:51:50,15.08846403,0.0001412,53.2167,283.1227,91.291,268.8244,-2.0315e-05,-6.11e-06,0.0,0 STARLINK-4099,1 53146U 22083Q   23258.28600222 -.00000611  00000-0 -20315-4 0  9991,2 53146  53.2167 283.1227 0001412  91.2910 268.8244 15.08846403 65015,6917.861,95.437,540.703,538.749,0.0
53146.0,STARLINK-4099,PAYLOAD,2023-09-15 11:37:59,15.08848001,0.0001531,53.2168,282.2303,106.892,253.224,-2.5e-05,-6.86e-06,0.0,0 STARLINK-4099,1 53146U 22083Q   23258.48472005 -.00000686  00000-0 -25000-4 0  9997,2 53146  53.2168 282.2303 0001531 106.8920 253.2240 15.08848001 64410,6917.856,95.437,540.78,538.662,0.0
53146.0,STARLINK-4099,PAYLOAD,2023-09-16 01:56:29,15.0883068,0.0001482,53.2162,279.5546,82.192,277.924,8.5532e-05,1.073e-05,0.0,0 STARLINK-4099,1 53146U 22083Q   23259.08089171  .00001073  00000-0  85532-4 0  9997,2 53146  53.2162 279.5546 0001482  82.1920 277.9240 15.08830680 65130,6917.909,95.438,540.799,538.749,0.0
53146.0,STARLINK-4099,PAYLOAD,2023-09-16 06:42:38,15.08828351,0.0001485,53.2163,278.6613,89.3662,270.75,5.5697e-05,5.98e-06,0.0,0 STARLINK-4099,1 53146U 22083Q   23259.27961502  .00000598  00000-0  55697-4 0  9995,2 53146  53.2163 278.6613 0001485  89.3662 270.7500 15.08828351 64536,6917.916,95.438,540.808,538.754,0.0
53146.0,STARLINK-4099,PAYLOAD,2023-09-17 01:47:15,15.08839475,0.0001473,53.216,275.0924,92.8377,267.2784,9.5927e-05,1.239e-05,0.0,0 STARLINK-4099,1 53146U 22083Q   23260.07449050  .00001239  00000-0  95927-4 0  9997,2 53146  53.2160 275.0924 0001473  92.8377 267.2784 15.08839475 65285,6917.882,95.438,540.766,538.728,0.0
53146.0,STARLINK-4099,PAYLOAD,2023-09-17 08:08:48,15.08846538,0.000152,53.2163,273.9031,89.5317,270.5849,0.00014009,1.943e-05,0.0,0 STARLINK-4099,1 53146U 22083Q   23260.33944598  .00001943  00000-0  14009-3 0  9996,2 53146  53.2163 273.9031 0001520  89.5317 270.5849 15.08846538 64695,6917.86,95.437,540.777,538.674,0.0
53146.0,STARLINK-4099,PAYLOAD,2023-09-18 07:59:35,15.08843594,0.0001538,53.2168,269.4446,88.3455,271.7713,0.00021278,3.1e-05,0.0,0 STARLINK-4099,1 53146U 22083Q   23261.33304901  .00003100  00000-0  21278-3 0  9998,2 53146  53.2168 269.4446 0001538  88.3455 271.7713 15.08843594 65478,6917.869,95.437,540.798,538.67,0.0
53146.0,STARLINK-4099,PAYLOAD,2023-09-18 17:31:54,15.08843612,0.0001592,53.2158,267.6595,88.8191,271.2984,0.00011673,1.57e-05,0.0,0 STARLINK-4099,1 53146U 22083Q   23261.73048824  .00001570  00000-0  11673-3 0  9998,2 53146  53.2158 267.6595 0001592  88.8191 271.2984 15.08843612 64907,6917.869,95.437,540.836,538.633,0.0
53146.0,STARLINK-4099,PAYLOAD,2023-09-19 17:22:41,15.0883975,0.0001704,53.2172,263.2004,84.6784,275.4403,-1.6359e-05,-5.48e-06,0.0,0 STARLINK-4099,1 53146U 22083Q   23262.72408856 -.00000548  00000-0 -16359-4 0  9996,2 53146  53.2172 263.2004 0001704  84.6784 275.4403 15.08839750 65683,6917.881,95.438,540.925,538.567,0.0
53146.0,STARLINK-4099,PAYLOAD,2023-09-20 07:41:10,15.08835904,0.0001637,53.2172,260.523,87.4254,272.6926,-3.16e-05,-7.91e-06,0.0,0 STARLINK-4099,1 53146U 22083Q   23263.32025709 -.00000791  00000-0 -31600-4 0  9991,2 53146  53.2172 260.5230 0001637  87.4254 272.6926 15.08835904 65778,6917.893,95.438,540.89,538.625,0.0
53146.0,STARLINK-4099,PAYLOAD,2023-09-20 17:13:28,15.08836783,0.0001641,53.2176,258.7395,87.2149,272.9031,1.5557e-05,-4e-07,0.0,0 STARLINK-4099,1 53146U 22083Q   23263.71769619 -.00000040  00000-0  15557-4 0  9998,2 53146  53.2176 258.7395 0001641  87.2149 272.9031 15.08836783 65203,6917.89,95.438,540.89,538.62,0.0
53146.0,STARLINK-4099,PAYLOAD,2023-09-21 09:07:20,15.08843186,0.0001477,53.2162,255.7651,91.6278,268.4883,2.2707e-05,7.3e-07,0.0,0 STARLINK-4099,1 53146U 22083Q   23264.38009312  .00000073  00000-0  22707-4 0  9999,2 53146  53.2162 255.7651 0001477  91.6278 268.4883 15.08843186 65939,6917.871,95.437,540.757,538.714,0.0
